[
  {
    "Maximum Capacity": "Unspecified",
    "Suburb": "CAULFIELD",
    "Postcode": 3162,
    "Latitude": -37.872303,
    "Longitude": 145.023196,
    "Region": "Metro South",
    "Gaming": "N"
  },
  {
    "Maximum Capacity": "Unspecified",
    "Suburb": "CLAYTON",
    "Postcode": 3168,
    "Latitude": -37.91319407,
    "Longitude": 145.1356941,
    "Region": "Metro East",
    "Gaming": "N"
  },
  {
    "Maximum Capacity": "Unspecified",
    "Suburb": "FRANKSTON",
    "Postcode": 3199,
    "Latitude": -38.16911688,
    "Longitude": 145.1486795,
    "Region": "Metro South",
    "Gaming": "N"
  },
  {
    "Maximum Capacity": "Unspecified",
    "Suburb": "PARKVILLE",
    "Postcode": 3052,
    "Latitude": -37.7864,
    "Longitude": 144.945033,
    "Region": "Metro North",
    "Gaming": "N"
  },
  {
    "Maximum Capacity": "Unspecified",
    "Suburb": "FRANKSTON",
    "Postcode": 3199,
    "Latitude": -38.1660265,
    "Longitude": 145.1048035,
    "Region": "Metro South",
    "Gaming": "N"
  },
  {
    "Maximum Capacity": "Unspecified",
    "Suburb": "CLAYTON",
    "Postcode": 3168,
    "Latitude": -37.92447709,
    "Longitude": 145.1196395,
    "Region": "Metro East",
    "Gaming": "N"
  },
  {
    "Maximum Capacity": "Unspecified",
    "Suburb": "CAULFIELD",
    "Postcode": 3162,
    "Latitude": -37.886911,
    "Longitude": 145.023135,
    "Region": "Metro South",
    "Gaming": "N"
  },
  {
    "Maximum Capacity": "Unspecified",
    "Suburb": "FRANKSTON",
    "Postcode": 3199,
    "Latitude": -38.157698,
    "Longitude": 145.130873,
    "Region": "Metro South",
    "Gaming": "N"
  },
  {
    "Maximum Capacity": "Unspecified",
    "Suburb": "FRANKSTON",
    "Postcode": 3199,
    "Latitude": -38.16434788,
    "Longitude": 145.1379029,
    "Region": "Metro South",
    "Gaming": "N"
  },
  {
    "Maximum Capacity": "Unspecified",
    "Suburb": "CAULFIELD",
    "Postcode": 3162,
    "Latitude": -37.894728,
    "Longitude": 145.020686,
    "Region": "Metro South",
    "Gaming": "N"
  },
  {
    "Maximum Capacity": "Unspecified",
    "Suburb": "FRANKSTON",
    "Postcode": 3199,
    "Latitude": -38.144588,
    "Longitude": 145.138186,
    "Region": "Metro South",
    "Gaming": "N"
  },
  {
    "Maximum Capacity": "Unspecified",
    "Suburb": "CLAYTON",
    "Postcode": 3168,
    "Latitude": -37.927467,
    "Longitude": 145.118994,
    "Region": "Metro East",
    "Gaming": "N"
  },
  {
    "Maximum Capacity": "Unspecified",
    "Suburb": "CLAYTON",
    "Postcode": 3168,
    "Latitude": -37.927314,
    "Longitude": 145.119021,
    "Region": "Metro East",
    "Gaming": "N"
  },
  {
    "Maximum Capacity": "Unspecified",
    "Suburb": "CAULFIELD",
    "Postcode": 3162,
    "Latitude": -37.8816128,
    "Longitude": 145.0351352,
    "Region": "Metro South",
    "Gaming": "N"
  },
  {
    "Maximum Capacity": "Unspecified",
    "Suburb": "CLAYTON",
    "Postcode": 3168,
    "Latitude": -37.9244643,
    "Longitude": 145.121096,
    "Region": "Metro East",
    "Gaming": "N"
  },
  {
    "Maximum Capacity": "Unspecified",
    "Suburb": "BERWICK",
    "Postcode": 3806,
    "Latitude": -38.03129412,
    "Longitude": 145.3442079,
    "Region": "Metro South",
    "Gaming": "N"
  },
  {
    "Maximum Capacity": "Unspecified",
    "Suburb": "CLAYTON",
    "Postcode": 3168,
    "Latitude": -37.92811912,
    "Longitude": 145.1194319,
    "Region": "Metro East",
    "Gaming": "N"
  },
  {
    "Maximum Capacity": "Unspecified",
    "Suburb": "FRANKSTON",
    "Postcode": 3199,
    "Latitude": -38.140753,
    "Longitude": 145.123374,
    "Region": "Metro South",
    "Gaming": "N"
  },
  {
    "Maximum Capacity": "Unspecified",
    "Suburb": "FRANKSTON",
    "Postcode": 3199,
    "Latitude": -38.143979,
    "Longitude": 145.124422,
    "Region": "Metro South",
    "Gaming": "N"
  },
  {
    "Maximum Capacity": "Unspecified",
    "Suburb": "BERWICK",
    "Postcode": 3806,
    "Latitude": -38.03747317,
    "Longitude": 145.3368274,
    "Region": "Metro South",
    "Gaming": "N"
  },
  {
    "Maximum Capacity": "Unspecified",
    "Suburb": "FRANKSTON",
    "Postcode": 3199,
    "Latitude": -38.1343323,
    "Longitude": 145.1768206,
    "Region": "Metro South",
    "Gaming": "N"
  },
  {
    "Maximum Capacity": "Unspecified",
    "Suburb": "FRANKSTON",
    "Postcode": 3199,
    "Latitude": -38.149826,
    "Longitude": 145.126838,
    "Region": "Metro South",
    "Gaming": "N"
  },
  {
    "Maximum Capacity": "Unspecified",
    "Suburb": "FRANKSTON",
    "Postcode": 3199,
    "Latitude": -38.161075,
    "Longitude": 145.127302,
    "Region": "Metro South",
    "Gaming": "N"
  },
  {
    "Maximum Capacity": "Unspecified",
    "Suburb": "FRANKSTON",
    "Postcode": 3199,
    "Latitude": -38.1616593,
    "Longitude": 145.1378736,
    "Region": "Metro South",
    "Gaming": "N"
  },
  {
    "Maximum Capacity": "Unspecified",
    "Suburb": "FRANKSTON",
    "Postcode": 3199,
    "Latitude": -38.170836,
    "Longitude": 145.161609,
    "Region": "Metro South",
    "Gaming": "N"
  },
  {
    "Maximum Capacity": "Unspecified",
    "Suburb": "FRANKSTON",
    "Postcode": 3199,
    "Latitude": -38.14017,
    "Longitude": 145.175102,
    "Region": "Metro South",
    "Gaming": "N"
  },
  {
    "Maximum Capacity": "Unspecified",
    "Suburb": "BERWICK",
    "Postcode": 3806,
    "Latitude": -38.02814,
    "Longitude": 145.363832,
    "Region": "Metro South",
    "Gaming": "N"
  },
  {
    "Maximum Capacity": "Unspecified",
    "Suburb": "FRANKSTON",
    "Postcode": 3199,
    "Latitude": -38.151295,
    "Longitude": 145.144343,
    "Region": "Metro South",
    "Gaming": "N"
  },
  {
    "Maximum Capacity": "Unspecified",
    "Suburb": "CLAYTON",
    "Postcode": 3168,
    "Latitude": -37.9541453,
    "Longitude": 145.1207949,
    "Region": "Metro South",
    "Gaming": "N"
  },
  {
    "Maximum Capacity": "Unspecified",
    "Suburb": "FRANKSTON",
    "Postcode": 3199,
    "Latitude": -38.151295,
    "Longitude": 145.144343,
    "Region": "Metro South",
    "Gaming": "N"
  },
  {
    "Maximum Capacity": "Between 200 and 499",
    "Suburb": "FRANKSTON",
    "Postcode": 3199,
    "Latitude": -38.161589,
    "Longitude": 145.139306,
    "Region": "Metro South",
    "Gaming": "N"
  },
  {
    "Maximum Capacity": "Unspecified",
    "Suburb": "FRANKSTON",
    "Postcode": 3199,
    "Latitude": -38.1621261,
    "Longitude": 145.125141,
    "Region": "Metro South",
    "Gaming": "N"
  },
  {
    "Maximum Capacity": "Unspecified",
    "Suburb": "FRANKSTON",
    "Postcode": 3199,
    "Latitude": -38.180278,
    "Longitude": 145.121562,
    "Region": "Metro South",
    "Gaming": "N"
  },
  {
    "Maximum Capacity": "Unspecified",
    "Suburb": "BERWICK",
    "Postcode": 3806,
    "Latitude": -38.027334,
    "Longitude": 145.355093,
    "Region": "Metro South",
    "Gaming": "N"
  },
  {
    "Maximum Capacity": "More than 499",
    "Suburb": "FRANKSTON",
    "Postcode": 3199,
    "Latitude": -38.145587,
    "Longitude": 145.120159,
    "Region": "Metro South",
    "Gaming": "N"
  },
  {
    "Maximum Capacity": "Unspecified",
    "Suburb": "CLAYTON",
    "Postcode": 3168,
    "Latitude": -37.924086,
    "Longitude": 145.120593,
    "Region": "Metro East",
    "Gaming": "N"
  },
  {
    "Maximum Capacity": "Unspecified",
    "Suburb": "BERWICK",
    "Postcode": 3806,
    "Latitude": -38.03154219,
    "Longitude": 145.3457586,
    "Region": "Metro South",
    "Gaming": "N"
  },
  {
    "Maximum Capacity": "Unspecified",
    "Suburb": "CLAYTON",
    "Postcode": 3168,
    "Latitude": -37.924054,
    "Longitude": 145.119161,
    "Region": "Metro East",
    "Gaming": "N"
  },
  {
    "Maximum Capacity": "Unspecified",
    "Suburb": "BERWICK",
    "Postcode": 3806,
    "Latitude": -38.030537,
    "Longitude": 145.327317,
    "Region": "Metro South",
    "Gaming": "N"
  },
  {
    "Maximum Capacity": "Unspecified",
    "Suburb": "BERWICK",
    "Postcode": 3806,
    "Latitude": -38.030748,
    "Longitude": 145.327459,
    "Region": "Metro South",
    "Gaming": "N"
  },
  {
    "Maximum Capacity": "Unspecified",
    "Suburb": "PARKVILLE",
    "Postcode": 3052,
    "Latitude": -37.7790515,
    "Longitude": 144.9584673,
    "Region": "Metro North",
    "Gaming": "N"
  },
  {
    "Maximum Capacity": "Unspecified",
    "Suburb": "FRANKSTON",
    "Postcode": 3199,
    "Latitude": -38.1628915,
    "Longitude": 145.138092,
    "Region": "Metro South",
    "Gaming": "N"
  },
  {
    "Maximum Capacity": "Unspecified",
    "Suburb": "FRANKSTON",
    "Postcode": 3199,
    "Latitude": -38.15320115,
    "Longitude": 145.1340508,
    "Region": "Metro South",
    "Gaming": "N"
  },
  {
    "Maximum Capacity": "More than 499",
    "Suburb": "FRANKSTON",
    "Postcode": 3199,
    "Latitude": -38.14520216,
    "Longitude": 145.1205752,
    "Region": "Metro South",
    "Gaming": "Y"
  },
  {
    "Maximum Capacity": "More than 499",
    "Suburb": "FRANKSTON",
    "Postcode": 3199,
    "Latitude": -38.14493259,
    "Longitude": 145.1198903,
    "Region": "Metro South",
    "Gaming": "Y"
  },
  {
    "Maximum Capacity": "More than 499",
    "Suburb": "FRANKSTON",
    "Postcode": 3199,
    "Latitude": -38.145491,
    "Longitude": 145.119214,
    "Region": "Metro South",
    "Gaming": "N"
  },
  {
    "Maximum Capacity": "Between 100 and 199",
    "Suburb": "CAULFIELD",
    "Postcode": 3162,
    "Latitude": -37.8896,
    "Longitude": 145.0211456,
    "Region": "Metro South",
    "Gaming": "Y"
  },
  {
    "Maximum Capacity": "Between 200 and 499",
    "Suburb": "PARKVILLE",
    "Postcode": 3052,
    "Latitude": -37.79558461,
    "Longitude": 144.9576146,
    "Region": "Metro North",
    "Gaming": "N"
  },
  {
    "Maximum Capacity": "More than 499",
    "Suburb": "BERWICK",
    "Postcode": 3806,
    "Latitude": -38.03053475,
    "Longitude": 145.3451156,
    "Region": "Metro South",
    "Gaming": "Y"
  },
  {
    "Maximum Capacity": "More than 499",
    "Suburb": "CLAYTON",
    "Postcode": 3168,
    "Latitude": -37.91977465,
    "Longitude": 145.1377295,
    "Region": "Metro East",
    "Gaming": "Y"
  },
  {
    "Maximum Capacity": "Between 200 and 499",
    "Suburb": "CLAYTON",
    "Postcode": 3168,
    "Latitude": -37.92429894,
    "Longitude": 145.1195395,
    "Region": "Metro East",
    "Gaming": "Y"
  },
  {
    "Maximum Capacity": "Between 20 and 49",
    "Suburb": "PARKVILLE",
    "Postcode": 3052,
    "Latitude": -37.79605565,
    "Longitude": 144.9613948,
    "Region": "Metro North",
    "Gaming": "N"
  },
  {
    "Maximum Capacity": "Unspecified",
    "Suburb": "FRANKSTON",
    "Postcode": 3199,
    "Latitude": -38.17108821,
    "Longitude": 145.1574139,
    "Region": "Metro South",
    "Gaming": "N"
  },
  {
    "Maximum Capacity": "Unspecified",
    "Suburb": "CAULFIELD",
    "Postcode": 3162,
    "Latitude": -37.879888,
    "Longitude": 145.023516,
    "Region": "Metro South",
    "Gaming": "N"
  },
  {
    "Maximum Capacity": "Unspecified",
    "Suburb": "CAULFIELD",
    "Postcode": 3162,
    "Latitude": -37.87277501,
    "Longitude": 145.0238774,
    "Region": "Metro South",
    "Gaming": "N"
  },
  {
    "Maximum Capacity": "Unspecified",
    "Suburb": "CLAYTON",
    "Postcode": 3168,
    "Latitude": -37.926151,
    "Longitude": 145.118379,
    "Region": "Metro East",
    "Gaming": "N"
  },
  {
    "Maximum Capacity": "Unspecified",
    "Suburb": "CLAYTON",
    "Postcode": 3168,
    "Latitude": -37.923957,
    "Longitude": 145.120426,
    "Region": "Metro East",
    "Gaming": "N"
  },
  {
    "Maximum Capacity": "Unspecified",
    "Suburb": "BERWICK",
    "Postcode": 3806,
    "Latitude": -38.029877,
    "Longitude": 145.347477,
    "Region": "Metro South",
    "Gaming": "N"
  },
  {
    "Maximum Capacity": "Unspecified",
    "Suburb": "FRANKSTON",
    "Postcode": 3199,
    "Latitude": -38.159244,
    "Longitude": 145.140797,
    "Region": "Metro South",
    "Gaming": "N"
  },
  {
    "Maximum Capacity": "Unspecified",
    "Suburb": "FRANKSTON",
    "Postcode": 3199,
    "Latitude": -38.166987,
    "Longitude": 145.108789,
    "Region": "Metro South",
    "Gaming": "N"
  },
  {
    "Maximum Capacity": "Unspecified",
    "Suburb": "FRANKSTON",
    "Postcode": 3199,
    "Latitude": -38.157806,
    "Longitude": 145.130824,
    "Region": "Metro South",
    "Gaming": "N"
  },
  {
    "Maximum Capacity": "Unspecified",
    "Suburb": "FRANKSTON",
    "Postcode": 3199,
    "Latitude": -38.14177654,
    "Longitude": 145.1230412,
    "Region": "Metro South",
    "Gaming": "N"
  },
  {
    "Maximum Capacity": "Unspecified",
    "Suburb": "FRANKSTON",
    "Postcode": 3199,
    "Latitude": -38.147443,
    "Longitude": 145.145039,
    "Region": "Metro South",
    "Gaming": "N"
  },
  {
    "Maximum Capacity": "Unspecified",
    "Suburb": "FRANKSTON",
    "Postcode": 3199,
    "Latitude": -38.14185909,
    "Longitude": 145.1225715,
    "Region": "Metro South",
    "Gaming": "N"
  },
  {
    "Maximum Capacity": "Unspecified",
    "Suburb": "FRANKSTON",
    "Postcode": 3199,
    "Latitude": -38.14768209,
    "Longitude": 145.1453476,
    "Region": "Metro South",
    "Gaming": "N"
  },
  {
    "Maximum Capacity": "Unspecified",
    "Suburb": "FRANKSTON",
    "Postcode": 3199,
    "Latitude": -38.15879,
    "Longitude": 145.123754,
    "Region": "Metro South",
    "Gaming": "N"
  },
  {
    "Maximum Capacity": "Unspecified",
    "Suburb": "FRANKSTON",
    "Postcode": 3199,
    "Latitude": -38.1474113,
    "Longitude": 145.1447496,
    "Region": "Metro South",
    "Gaming": "N"
  },
  {
    "Maximum Capacity": "Unspecified",
    "Suburb": "CLAYTON",
    "Postcode": 3168,
    "Latitude": -37.927261,
    "Longitude": 145.119033,
    "Region": "Metro East",
    "Gaming": "N"
  },
  {
    "Maximum Capacity": "Unspecified",
    "Suburb": "BERWICK",
    "Postcode": 3806,
    "Latitude": -38.01491622,
    "Longitude": 145.3234036,
    "Region": "Metro South",
    "Gaming": "N"
  },
  {
    "Maximum Capacity": "Unspecified",
    "Suburb": "FRANKSTON",
    "Postcode": 3199,
    "Latitude": -38.144839,
    "Longitude": 145.138824,
    "Region": "Metro South",
    "Gaming": "N"
  },
  {
    "Maximum Capacity": "Unspecified",
    "Suburb": "CAULFIELD",
    "Postcode": 3162,
    "Latitude": -37.876081,
    "Longitude": 145.042919,
    "Region": "Metro South",
    "Gaming": "N"
  },
  {
    "Maximum Capacity": "Unspecified",
    "Suburb": "FRANKSTON",
    "Postcode": 3199,
    "Latitude": -38.14755129,
    "Longitude": 145.1450542,
    "Region": "Metro South",
    "Gaming": "N"
  },
  {
    "Maximum Capacity": "Unspecified",
    "Suburb": "BERWICK",
    "Postcode": 3806,
    "Latitude": -38.05588739,
    "Longitude": 145.3471,
    "Region": "Metro South",
    "Gaming": "N"
  },
  {
    "Maximum Capacity": "Unspecified",
    "Suburb": "BERWICK",
    "Postcode": 3806,
    "Latitude": -38.031036,
    "Longitude": 145.347166,
    "Region": "Metro South",
    "Gaming": "N"
  },
  {
    "Maximum Capacity": "Unspecified",
    "Suburb": "FRANKSTON",
    "Postcode": 3199,
    "Latitude": -38.140962,
    "Longitude": 145.126379,
    "Region": "Metro South",
    "Gaming": "N"
  },
  {
    "Maximum Capacity": "Unspecified",
    "Suburb": "BERWICK",
    "Postcode": 3806,
    "Latitude": -38.0616065,
    "Longitude": 145.3391026,
    "Region": "Metro South",
    "Gaming": "N"
  },
  {
    "Maximum Capacity": "Unspecified",
    "Suburb": "BERWICK",
    "Postcode": 3806,
    "Latitude": -38.0604189,
    "Longitude": 145.3394612,
    "Region": "Metro South",
    "Gaming": "N"
  },
  {
    "Maximum Capacity": "Unspecified",
    "Suburb": "FRANKSTON",
    "Postcode": 3199,
    "Latitude": -38.14177654,
    "Longitude": 145.1230412,
    "Region": "Metro South",
    "Gaming": "N"
  },
  {
    "Maximum Capacity": "Unspecified",
    "Suburb": "BERWICK",
    "Postcode": 3806,
    "Latitude": -38.030162,
    "Longitude": 145.344668,
    "Region": "Metro South",
    "Gaming": "N"
  },
  {
    "Maximum Capacity": "Unspecified",
    "Suburb": "FRANKSTON",
    "Postcode": 3199,
    "Latitude": -38.15478136,
    "Longitude": 145.1659531,
    "Region": "Metro South",
    "Gaming": "N"
  },
  {
    "Maximum Capacity": "Unspecified",
    "Suburb": "CLAYTON",
    "Postcode": 3168,
    "Latitude": -37.92627235,
    "Longitude": 145.1192242,
    "Region": "Metro East",
    "Gaming": "N"
  },
  {
    "Maximum Capacity": "Unspecified",
    "Suburb": "CLAYTON",
    "Postcode": 3168,
    "Latitude": -37.920509,
    "Longitude": 145.139576,
    "Region": "Metro East",
    "Gaming": "N"
  },
  {
    "Maximum Capacity": "Unspecified",
    "Suburb": "FRANKSTON",
    "Postcode": 3199,
    "Latitude": -38.12958311,
    "Longitude": 145.1529168,
    "Region": "Metro South",
    "Gaming": "N"
  },
  {
    "Maximum Capacity": "More than 499",
    "Suburb": "CLAYTON",
    "Postcode": 3168,
    "Latitude": -37.9563035,
    "Longitude": 145.1324713,
    "Region": "Metro South",
    "Gaming": "N"
  },
  {
    "Maximum Capacity": "Unspecified",
    "Suburb": "CAULFIELD",
    "Postcode": 3162,
    "Latitude": -37.887633,
    "Longitude": 145.021638,
    "Region": "Metro South",
    "Gaming": "N"
  },
  {
    "Maximum Capacity": "Unspecified",
    "Suburb": "FRANKSTON",
    "Postcode": 3199,
    "Latitude": -38.151167,
    "Longitude": 145.124573,
    "Region": "Metro South",
    "Gaming": "N"
  },
  {
    "Maximum Capacity": "Unspecified",
    "Suburb": "CLAYTON",
    "Postcode": 3168,
    "Latitude": -37.9320007,
    "Longitude": 145.1090332,
    "Region": "Metro South",
    "Gaming": "Y"
  },
  {
    "Maximum Capacity": "More than 499",
    "Suburb": "FRANKSTON",
    "Postcode": 3199,
    "Latitude": -38.144863,
    "Longitude": 145.119984,
    "Region": "Metro South",
    "Gaming": "N"
  },
  {
    "Maximum Capacity": "More than 499",
    "Suburb": "PARKVILLE",
    "Postcode": 3052,
    "Latitude": -37.7854906,
    "Longitude": 144.9533719,
    "Region": "Metro North",
    "Gaming": "N"
  },
  {
    "Maximum Capacity": "Between 100 and 199",
    "Suburb": "FRANKSTON",
    "Postcode": 3199,
    "Latitude": -38.14194475,
    "Longitude": 145.1218858,
    "Region": "Metro South",
    "Gaming": "N"
  },
  {
    "Maximum Capacity": "Unspecified",
    "Suburb": "BERWICK",
    "Postcode": 3806,
    "Latitude": -38.032411,
    "Longitude": 145.343728,
    "Region": "Metro South",
    "Gaming": "N"
  },
  {
    "Maximum Capacity": "More than 499",
    "Suburb": "FRANKSTON",
    "Postcode": 3199,
    "Latitude": -38.15075701,
    "Longitude": 145.1479637,
    "Region": "Metro South",
    "Gaming": "Y"
  },
  {
    "Maximum Capacity": "Unspecified",
    "Suburb": "CLAYTON",
    "Postcode": 3168,
    "Latitude": -37.92537699,
    "Longitude": 145.1226123,
    "Region": "Metro East",
    "Gaming": "Y"
  },
  {
    "Maximum Capacity": "Unspecified",
    "Suburb": "FRANKSTON",
    "Postcode": 3199,
    "Latitude": -38.1331463,
    "Longitude": 145.1756218,
    "Region": "Metro South",
    "Gaming": "N"
  },
  {
    "Maximum Capacity": "Unspecified",
    "Suburb": "BERWICK",
    "Postcode": 3806,
    "Latitude": -38.032807,
    "Longitude": 145.365705,
    "Region": "Metro South",
    "Gaming": "N"
  },
  {
    "Maximum Capacity": "Unspecified",
    "Suburb": "CLAYTON",
    "Postcode": 3168,
    "Latitude": -37.95505,
    "Longitude": 145.113257,
    "Region": "Metro South",
    "Gaming": "N"
  },
  {
    "Maximum Capacity": "Between 50 and 100",
    "Suburb": "FRANKSTON",
    "Postcode": 3199,
    "Latitude": -38.144598,
    "Longitude": 145.120858,
    "Region": "Metro South",
    "Gaming": "N"
  },
  {
    "Maximum Capacity": "Unspecified",
    "Suburb": "BERWICK",
    "Postcode": 3806,
    "Latitude": -38.030995,
    "Longitude": 145.346814,
    "Region": "Metro South",
    "Gaming": "N"
  },
  {
    "Maximum Capacity": "Unspecified",
    "Suburb": "FRANKSTON",
    "Postcode": 3199,
    "Latitude": -38.131727,
    "Longitude": 145.125249,
    "Region": "Metro South",
    "Gaming": "N"
  },
  {
    "Maximum Capacity": "Unspecified",
    "Suburb": "CLAYTON",
    "Postcode": 3168,
    "Latitude": -37.92348184,
    "Longitude": 145.1197749,
    "Region": "Metro East",
    "Gaming": "N"
  },
  {
    "Maximum Capacity": "Unspecified",
    "Suburb": "FRANKSTON",
    "Postcode": 3199,
    "Latitude": -38.094866,
    "Longitude": 145.128744,
    "Region": "Metro South",
    "Gaming": "N"
  },
  {
    "Maximum Capacity": "Unspecified",
    "Suburb": "CAULFIELD",
    "Postcode": 3162,
    "Latitude": -37.86935822,
    "Longitude": 145.0251406,
    "Region": "Metro South",
    "Gaming": "N"
  },
  {
    "Maximum Capacity": "Between 100 and 199",
    "Suburb": "FRANKSTON",
    "Postcode": 3199,
    "Latitude": -38.145821,
    "Longitude": 145.122994,
    "Region": "Metro South",
    "Gaming": "N"
  },
  {
    "Maximum Capacity": "Unspecified",
    "Suburb": "BERWICK",
    "Postcode": 3806,
    "Latitude": -38.02262814,
    "Longitude": 145.3015823,
    "Region": "Metro South",
    "Gaming": "N"
  },
  {
    "Maximum Capacity": "More than 499",
    "Suburb": "FRANKSTON",
    "Postcode": 3199,
    "Latitude": -38.147209,
    "Longitude": 145.119023,
    "Region": "Metro South",
    "Gaming": "N"
  },
  {
    "Maximum Capacity": "Unspecified",
    "Suburb": "FRANKSTON",
    "Postcode": 3199,
    "Latitude": -38.13723325,
    "Longitude": 145.1564917,
    "Region": "Metro South",
    "Gaming": "Y"
  },
  {
    "Maximum Capacity": "More than 499",
    "Suburb": "CAULFIELD",
    "Postcode": 3162,
    "Latitude": -37.877525,
    "Longitude": 145.039481,
    "Region": "Metro South",
    "Gaming": "Y"
  },
  {
    "Maximum Capacity": "Between 100 and 199",
    "Suburb": "FRANKSTON",
    "Postcode": 3199,
    "Latitude": -38.14215223,
    "Longitude": 145.1217424,
    "Region": "Metro South",
    "Gaming": "N"
  },
  {
    "Maximum Capacity": "Unspecified",
    "Suburb": "FRANKSTON",
    "Postcode": 3199,
    "Latitude": -38.144963,
    "Longitude": 145.120597,
    "Region": "Metro South",
    "Gaming": "N"
  },
  {
    "Maximum Capacity": "Unspecified",
    "Suburb": "FRANKSTON",
    "Postcode": 3199,
    "Latitude": -38.141275,
    "Longitude": 145.121548,
    "Region": "Metro South",
    "Gaming": "N"
  },
  {
    "Maximum Capacity": "Between 20 and 49",
    "Suburb": "CLAYTON",
    "Postcode": 3168,
    "Latitude": -37.9238557,
    "Longitude": 145.1202686,
    "Region": "Metro East",
    "Gaming": "N"
  },
  {
    "Maximum Capacity": "Unspecified",
    "Suburb": "CLAYTON",
    "Postcode": 3168,
    "Latitude": -37.92205285,
    "Longitude": 145.1400536,
    "Region": "Metro East",
    "Gaming": "N"
  },
  {
    "Maximum Capacity": "Between 100 and 199",
    "Suburb": "FRANKSTON",
    "Postcode": 3199,
    "Latitude": -38.134259,
    "Longitude": 145.124671,
    "Region": "Metro South",
    "Gaming": "N"
  },
  {
    "Maximum Capacity": "More than 499",
    "Suburb": "CLAYTON",
    "Postcode": 3168,
    "Latitude": -37.91319407,
    "Longitude": 145.1356941,
    "Region": "Metro East",
    "Gaming": "N"
  },
  {
    "Maximum Capacity": "Between 100 and 199",
    "Suburb": "BERWICK",
    "Postcode": 3806,
    "Latitude": -38.03166741,
    "Longitude": 145.3465597,
    "Region": "Metro South",
    "Gaming": "N"
  },
  {
    "Maximum Capacity": "More than 499",
    "Suburb": "FRANKSTON",
    "Postcode": 3199,
    "Latitude": -38.1464693,
    "Longitude": 145.1229708,
    "Region": "Metro South",
    "Gaming": "N"
  },
  {
    "Maximum Capacity": "Unspecified",
    "Suburb": "FRANKSTON",
    "Postcode": 3199,
    "Latitude": -38.132879,
    "Longitude": 145.127969,
    "Region": "Metro South",
    "Gaming": "N"
  },
  {
    "Maximum Capacity": "Between 200 and 499",
    "Suburb": "FRANKSTON",
    "Postcode": 3199,
    "Latitude": -38.15164868,
    "Longitude": 145.154445,
    "Region": "Metro South",
    "Gaming": "N"
  },
  {
    "Maximum Capacity": "More than 499",
    "Suburb": "FRANKSTON",
    "Postcode": 3199,
    "Latitude": -38.136835,
    "Longitude": 145.1394582,
    "Region": "Metro South",
    "Gaming": "N"
  },
  {
    "Maximum Capacity": "Between 50 and 100",
    "Suburb": "CLAYTON",
    "Postcode": 3168,
    "Latitude": -37.922877,
    "Longitude": 145.119851,
    "Region": "Metro East",
    "Gaming": "N"
  },
  {
    "Maximum Capacity": "Between 100 and 199",
    "Suburb": "FRANKSTON",
    "Postcode": 3199,
    "Latitude": -38.144604,
    "Longitude": 145.120104,
    "Region": "Metro South",
    "Gaming": "N"
  },
  {
    "Maximum Capacity": "Unspecified",
    "Suburb": "PARKVILLE",
    "Postcode": 3052,
    "Latitude": -37.784964,
    "Longitude": 144.958906,
    "Region": "Metro North",
    "Gaming": "N"
  },
  {
    "Maximum Capacity": "Unspecified",
    "Suburb": "FRANKSTON",
    "Postcode": 3199,
    "Latitude": -38.151603,
    "Longitude": 145.152278,
    "Region": "Metro South",
    "Gaming": "N"
  },
  {
    "Maximum Capacity": "Between 100 and 199",
    "Suburb": "FRANKSTON",
    "Postcode": 3199,
    "Latitude": -38.142923,
    "Longitude": 145.121712,
    "Region": "Metro South",
    "Gaming": "N"
  },
  {
    "Maximum Capacity": "Between 100 and 199",
    "Suburb": "FRANKSTON",
    "Postcode": 3199,
    "Latitude": -38.140964,
    "Longitude": 145.121656,
    "Region": "Metro South",
    "Gaming": "N"
  },
  {
    "Maximum Capacity": "Between 100 and 199",
    "Suburb": "BERWICK",
    "Postcode": 3806,
    "Latitude": -38.031504,
    "Longitude": 145.345264,
    "Region": "Metro South",
    "Gaming": "N"
  },
  {
    "Maximum Capacity": "Between 100 and 199",
    "Suburb": "FRANKSTON",
    "Postcode": 3199,
    "Latitude": -38.13510318,
    "Longitude": 145.1238741,
    "Region": "Metro South",
    "Gaming": "N"
  },
  {
    "Maximum Capacity": "Between 100 and 199",
    "Suburb": "BERWICK",
    "Postcode": 3806,
    "Latitude": -38.030862,
    "Longitude": 145.345723,
    "Region": "Metro South",
    "Gaming": "N"
  },
  {
    "Maximum Capacity": "Between 50 and 100",
    "Suburb": "FRANKSTON",
    "Postcode": 3199,
    "Latitude": -38.14434009,
    "Longitude": 145.1217296,
    "Region": "Metro South",
    "Gaming": "N"
  },
  {
    "Maximum Capacity": "Unspecified",
    "Suburb": "CAULFIELD",
    "Postcode": 3161,
    "Latitude": -37.8860853,
    "Longitude": 145.0140069,
    "Region": "Metro South",
    "Gaming": "N"
  },
  {
    "Maximum Capacity": "Between 100 and 199",
    "Suburb": "BERWICK",
    "Postcode": 3806,
    "Latitude": -38.030275,
    "Longitude": 145.345645,
    "Region": "Metro South",
    "Gaming": "N"
  },
  {
    "Maximum Capacity": "Between 100 and 199",
    "Suburb": "CLAYTON",
    "Postcode": 3168,
    "Latitude": -37.928912,
    "Longitude": 145.119162,
    "Region": "Metro South",
    "Gaming": "N"
  },
  {
    "Maximum Capacity": "Unspecified",
    "Suburb": "FRANKSTON",
    "Postcode": 3199,
    "Latitude": -38.140613,
    "Longitude": 145.1218504,
    "Region": "Metro South",
    "Gaming": "N"
  },
  {
    "Maximum Capacity": "Between 20 and 49",
    "Suburb": "CLAYTON",
    "Postcode": 3168,
    "Latitude": -37.91105104,
    "Longitude": 145.1225634,
    "Region": "Metro East",
    "Gaming": "N"
  },
  {
    "Maximum Capacity": "Between 100 and 199",
    "Suburb": "FRANKSTON",
    "Postcode": 3199,
    "Latitude": -38.1331463,
    "Longitude": 145.1756218,
    "Region": "Metro South",
    "Gaming": "N"
  },
  {
    "Maximum Capacity": "Unspecified",
    "Suburb": "FRANKSTON",
    "Postcode": 3199,
    "Latitude": -38.144661,
    "Longitude": 145.120845,
    "Region": "Metro South",
    "Gaming": "N"
  },
  {
    "Maximum Capacity": "Unspecified",
    "Suburb": "PARKVILLE",
    "Postcode": 3052,
    "Latitude": -37.78399678,
    "Longitude": 144.9593034,
    "Region": "Metro North",
    "Gaming": "N"
  },
  {
    "Maximum Capacity": "More than 499",
    "Suburb": "PARKVILLE",
    "Postcode": 3052,
    "Latitude": -37.786054,
    "Longitude": 144.948009,
    "Region": "Metro North",
    "Gaming": "N"
  },
  {
    "Maximum Capacity": "Unspecified",
    "Suburb": "BERWICK",
    "Postcode": 3806,
    "Latitude": -38.05842864,
    "Longitude": 145.3382442,
    "Region": "Metro South",
    "Gaming": "N"
  },
  {
    "Maximum Capacity": "Between 100 and 199",
    "Suburb": "BERWICK",
    "Postcode": 3806,
    "Latitude": -38.05826061,
    "Longitude": 145.3382847,
    "Region": "Metro South",
    "Gaming": "N"
  },
  {
    "Maximum Capacity": "Between 50 and 100",
    "Suburb": "CLAYTON",
    "Postcode": 3168,
    "Latitude": -37.91319407,
    "Longitude": 145.1356941,
    "Region": "Metro East",
    "Gaming": "N"
  },
  {
    "Maximum Capacity": "Between 50 and 100",
    "Suburb": "CLAYTON",
    "Postcode": 3168,
    "Latitude": -37.928401,
    "Longitude": 145.115989,
    "Region": "Metro South",
    "Gaming": "N"
  },
  {
    "Maximum Capacity": "Unspecified",
    "Suburb": "FRANKSTON",
    "Postcode": 3199,
    "Latitude": -38.144758,
    "Longitude": 145.120751,
    "Region": "Metro South",
    "Gaming": "N"
  },
  {
    "Maximum Capacity": "Unspecified",
    "Suburb": "CLAYTON",
    "Postcode": 3168,
    "Latitude": -37.925616,
    "Longitude": 145.119906,
    "Region": "Metro East",
    "Gaming": "N"
  },
  {
    "Maximum Capacity": "Between 50 and 100",
    "Suburb": "BERWICK",
    "Postcode": 3806,
    "Latitude": -38.032897,
    "Longitude": 145.346224,
    "Region": "Metro South",
    "Gaming": "N"
  },
  {
    "Maximum Capacity": "Between 20 and 49",
    "Suburb": "CLAYTON",
    "Postcode": 3168,
    "Latitude": -37.9279949,
    "Longitude": 145.1194173,
    "Region": "Metro East",
    "Gaming": "N"
  },
  {
    "Maximum Capacity": "Unspecified",
    "Suburb": "CLAYTON",
    "Postcode": 3168,
    "Latitude": -37.930757,
    "Longitude": 145.135419,
    "Region": "Metro South",
    "Gaming": "N"
  },
  {
    "Maximum Capacity": "Between 50 and 100",
    "Suburb": "FRANKSTON",
    "Postcode": 3199,
    "Latitude": -38.144604,
    "Longitude": 145.120104,
    "Region": "Metro South",
    "Gaming": "N"
  },
  {
    "Maximum Capacity": "Unspecified",
    "Suburb": "CLAYTON",
    "Postcode": 3168,
    "Latitude": -37.929532,
    "Longitude": 145.12868,
    "Region": "Metro East",
    "Gaming": "N"
  },
  {
    "Maximum Capacity": "Unspecified",
    "Suburb": "FRANKSTON",
    "Postcode": 3199,
    "Latitude": -38.142414,
    "Longitude": 145.118584,
    "Region": "Metro South",
    "Gaming": "N"
  },
  {
    "Maximum Capacity": "Unspecified",
    "Suburb": "BERWICK",
    "Postcode": 3806,
    "Latitude": -38.055887,
    "Longitude": 145.3471,
    "Region": "Metro South",
    "Gaming": "N"
  },
  {
    "Maximum Capacity": "Between 200 and 499",
    "Suburb": "CLAYTON",
    "Postcode": 3800,
    "Latitude": -37.91515521,
    "Longitude": 145.1339008,
    "Region": "Metro East",
    "Gaming": "N"
  },
  {
    "Maximum Capacity": "Between 100 and 199",
    "Suburb": "FRANKSTON",
    "Postcode": 3199,
    "Latitude": -38.14383285,
    "Longitude": 145.1232431,
    "Region": "Metro South",
    "Gaming": "N"
  },
  {
    "Maximum Capacity": "Unspecified",
    "Suburb": "FRANKSTON",
    "Postcode": 3199,
    "Latitude": -38.143973,
    "Longitude": 145.122939,
    "Region": "Metro South",
    "Gaming": "N"
  },
  {
    "Maximum Capacity": "Between 100 and 199",
    "Suburb": "FRANKSTON",
    "Postcode": 3199,
    "Latitude": -38.143973,
    "Longitude": 145.122939,
    "Region": "Metro South",
    "Gaming": "N"
  },
  {
    "Maximum Capacity": "Unspecified",
    "Suburb": "FRANKSTON",
    "Postcode": 3199,
    "Latitude": -38.12560615,
    "Longitude": 145.1331741,
    "Region": "Metro South",
    "Gaming": "N"
  },
  {
    "Maximum Capacity": "Between 100 and 199",
    "Suburb": "FRANKSTON",
    "Postcode": 3199,
    "Latitude": -38.143393,
    "Longitude": 145.122186,
    "Region": "Metro South",
    "Gaming": "N"
  },
  {
    "Maximum Capacity": "Between 50 and 100",
    "Suburb": "FRANKSTON",
    "Postcode": 3199,
    "Latitude": -38.1407724,
    "Longitude": 145.1238151,
    "Region": "Metro South",
    "Gaming": "N"
  },
  {
    "Maximum Capacity": "Unspecified",
    "Suburb": "FRANKSTON",
    "Postcode": 3199,
    "Latitude": -38.154536,
    "Longitude": 145.166316,
    "Region": "Metro South",
    "Gaming": "N"
  },
  {
    "Maximum Capacity": "Between 200 and 499",
    "Suburb": "FRANKSTON",
    "Postcode": 3199,
    "Latitude": -38.1513314,
    "Longitude": 145.1653293,
    "Region": "Metro South",
    "Gaming": "N"
  },
  {
    "Maximum Capacity": "Unspecified",
    "Suburb": "BERWICK",
    "Postcode": 3805,
    "Latitude": -38.03054259,
    "Longitude": 145.3484919,
    "Region": "Metro South",
    "Gaming": "N"
  },
  {
    "Maximum Capacity": "Between 200 and 499",
    "Suburb": "FRANKSTON",
    "Postcode": 3199,
    "Latitude": -38.1472174,
    "Longitude": 145.1166657,
    "Region": "Metro South",
    "Gaming": "N"
  },
  {
    "Maximum Capacity": "Unspecified",
    "Suburb": "FRANKSTON",
    "Postcode": 3199,
    "Latitude": -38.1513314,
    "Longitude": 145.1653293,
    "Region": "Metro South",
    "Gaming": "N"
  },
  {
    "Maximum Capacity": "Between 50 and 100",
    "Suburb": "BERWICK",
    "Postcode": 3806,
    "Latitude": -38.0426792,
    "Longitude": 145.3458606,
    "Region": "Metro South",
    "Gaming": "N"
  },
  {
    "Maximum Capacity": "Between 50 and 100",
    "Suburb": "CLAYTON",
    "Postcode": 3168,
    "Latitude": -37.922939,
    "Longitude": 145.119841,
    "Region": "Metro East",
    "Gaming": "N"
  },
  {
    "Maximum Capacity": "Between 100 and 199",
    "Suburb": "BERWICK",
    "Postcode": 3806,
    "Latitude": -38.02892146,
    "Longitude": 145.3487123,
    "Region": "Metro South",
    "Gaming": "N"
  },
  {
    "Maximum Capacity": "Between 100 and 199",
    "Suburb": "BERWICK",
    "Postcode": 3806,
    "Latitude": -38.01491621,
    "Longitude": 145.3234036,
    "Region": "Metro South",
    "Gaming": "N"
  },
  {
    "Maximum Capacity": "More than 499",
    "Suburb": "PARKVILLE",
    "Postcode": 3052,
    "Latitude": -37.792072,
    "Longitude": 144.959834,
    "Region": "Metro North",
    "Gaming": "N"
  },
  {
    "Maximum Capacity": "Between 200 and 499",
    "Suburb": "FRANKSTON",
    "Postcode": 3199,
    "Latitude": -38.1416209,
    "Longitude": 145.1261554,
    "Region": "Metro South",
    "Gaming": "N"
  },
  {
    "Maximum Capacity": "Unspecified",
    "Suburb": "PARKVILLE",
    "Postcode": 3053,
    "Latitude": -37.8002646,
    "Longitude": 144.9598049,
    "Region": "Metro North",
    "Gaming": "N"
  },
  {
    "Maximum Capacity": "Unspecified",
    "Suburb": "BERWICK",
    "Postcode": 3806,
    "Latitude": -38.03132068,
    "Longitude": 145.3439568,
    "Region": "Metro South",
    "Gaming": "N"
  },
  {
    "Maximum Capacity": "Unspecified",
    "Suburb": "FRANKSTON",
    "Postcode": 3199,
    "Latitude": -38.1513314,
    "Longitude": 145.1653293,
    "Region": "Metro South",
    "Gaming": "N"
  },
  {
    "Maximum Capacity": "Between 200 and 499",
    "Suburb": "FRANKSTON",
    "Postcode": 3199,
    "Latitude": -38.151229,
    "Longitude": 145.133376,
    "Region": "Metro South",
    "Gaming": "N"
  },
  {
    "Maximum Capacity": "Unspecified",
    "Suburb": "CAULFIELD",
    "Postcode": 3162,
    "Latitude": -37.88649,
    "Longitude": 145.020099,
    "Region": "Metro South",
    "Gaming": "N"
  },
  {
    "Maximum Capacity": "Unspecified",
    "Suburb": "CLAYTON",
    "Postcode": 3168,
    "Latitude": -37.921972,
    "Longitude": 145.137011,
    "Region": "Metro East",
    "Gaming": "N"
  },
  {
    "Maximum Capacity": "Unspecified",
    "Suburb": "CLAYTON",
    "Postcode": 3168,
    "Latitude": -37.92348184,
    "Longitude": 145.1197749,
    "Region": "Metro East",
    "Gaming": "N"
  },
  {
    "Maximum Capacity": "Between 20 and 49",
    "Suburb": "CLAYTON",
    "Postcode": 3168,
    "Latitude": -37.91693846,
    "Longitude": 145.1486589,
    "Region": "Metro East",
    "Gaming": "N"
  },
  {
    "Maximum Capacity": "Between 100 and 199",
    "Suburb": "CLAYTON",
    "Postcode": 3168,
    "Latitude": -37.91693846,
    "Longitude": 145.1486589,
    "Region": "Metro East",
    "Gaming": "N"
  },
  {
    "Maximum Capacity": "Between 100 and 199",
    "Suburb": "FRANKSTON",
    "Postcode": 3199,
    "Latitude": -38.14602495,
    "Longitude": 145.1398508,
    "Region": "Metro South",
    "Gaming": "N"
  },
  {
    "Maximum Capacity": "Between 50 and 100",
    "Suburb": "BERWICK",
    "Postcode": 3806,
    "Latitude": -38.030954,
    "Longitude": 145.346484,
    "Region": "Metro South",
    "Gaming": "N"
  },
  {
    "Maximum Capacity": "Between 50 and 100",
    "Suburb": "FRANKSTON",
    "Postcode": 3199,
    "Latitude": -38.140557,
    "Longitude": 145.123029,
    "Region": "Metro South",
    "Gaming": "N"
  },
  {
    "Maximum Capacity": "Between 200 and 499",
    "Suburb": "CLAYTON",
    "Postcode": 3168,
    "Latitude": -37.9140006,
    "Longitude": 145.1348669,
    "Region": "Metro East",
    "Gaming": "N"
  },
  {
    "Maximum Capacity": "Between 100 and 199",
    "Suburb": "CLAYTON",
    "Postcode": 3168,
    "Latitude": -37.910277,
    "Longitude": 145.142358,
    "Region": "Metro East",
    "Gaming": "N"
  },
  {
    "Maximum Capacity": "Between 50 and 100",
    "Suburb": "CLAYTON",
    "Postcode": 3168,
    "Latitude": -37.926964,
    "Longitude": 145.119621,
    "Region": "Metro East",
    "Gaming": "N"
  },
  {
    "Maximum Capacity": "Between 50 and 100",
    "Suburb": "FRANKSTON",
    "Postcode": 3199,
    "Latitude": -38.1432478,
    "Longitude": 145.1238954,
    "Region": "Metro South",
    "Gaming": "N"
  },
  {
    "Maximum Capacity": "Between 50 and 100",
    "Suburb": "CAULFIELD",
    "Postcode": 3162,
    "Latitude": -37.886541,
    "Longitude": 145.020439,
    "Region": "Metro South",
    "Gaming": "N"
  },
  {
    "Maximum Capacity": "Between 20 and 49",
    "Suburb": "FRANKSTON",
    "Postcode": 3199,
    "Latitude": -38.166667,
    "Longitude": 145.108523,
    "Region": "Metro South",
    "Gaming": "N"
  },
  {
    "Maximum Capacity": "Between 20 and 49",
    "Suburb": "CLAYTON",
    "Postcode": 3168,
    "Latitude": -37.923048,
    "Longitude": 145.119914,
    "Region": "Metro East",
    "Gaming": "N"
  },
  {
    "Maximum Capacity": "Between 20 and 49",
    "Suburb": "FRANKSTON",
    "Postcode": 3199,
    "Latitude": -38.144928,
    "Longitude": 145.120632,
    "Region": "Metro South",
    "Gaming": "N"
  },
  {
    "Maximum Capacity": "Between 200 and 499",
    "Suburb": "PARKVILLE",
    "Postcode": 3052,
    "Latitude": -37.79827067,
    "Longitude": 144.9585513,
    "Region": "Metro North",
    "Gaming": "N"
  },
  {
    "Maximum Capacity": "Unspecified",
    "Suburb": "PARKVILLE",
    "Postcode": 3052,
    "Latitude": -37.79525733,
    "Longitude": 144.9646236,
    "Region": "Metro North",
    "Gaming": "N"
  },
  {
    "Maximum Capacity": "Between 50 and 100",
    "Suburb": "BERWICK",
    "Postcode": 3806,
    "Latitude": -38.03152685,
    "Longitude": 145.3455375,
    "Region": "Metro South",
    "Gaming": "N"
  },
  {
    "Maximum Capacity": "Between 100 and 199",
    "Suburb": "CLAYTON",
    "Postcode": 3168,
    "Latitude": -37.91515521,
    "Longitude": 145.1339008,
    "Region": "Metro East",
    "Gaming": "N"
  },
  {
    "Maximum Capacity": "Between 50 and 100",
    "Suburb": "BERWICK",
    "Postcode": 3806,
    "Latitude": -38.01491621,
    "Longitude": 145.3234036,
    "Region": "Metro South",
    "Gaming": "N"
  },
  {
    "Maximum Capacity": "Between 200 and 499",
    "Suburb": "PARKVILLE",
    "Postcode": 3052,
    "Latitude": -37.79312693,
    "Longitude": 144.9634853,
    "Region": "Metro North",
    "Gaming": "N"
  },
  {
    "Maximum Capacity": "Between 100 and 199",
    "Suburb": "FRANKSTON",
    "Postcode": 3199,
    "Latitude": -38.142367,
    "Longitude": 145.121691,
    "Region": "Metro South",
    "Gaming": "N"
  },
  {
    "Maximum Capacity": "Between 20 and 49",
    "Suburb": "BERWICK",
    "Postcode": 3806,
    "Latitude": -38.03054819,
    "Longitude": 145.3467103,
    "Region": "Metro South",
    "Gaming": "N"
  },
  {
    "Maximum Capacity": "Unspecified",
    "Suburb": "PARKVILLE",
    "Postcode": 3010,
    "Latitude": -37.79689848,
    "Longitude": 144.9608376,
    "Region": "Metro North",
    "Gaming": "N"
  },
  {
    "Maximum Capacity": "Between 50 and 100",
    "Suburb": "FRANKSTON",
    "Postcode": 3199,
    "Latitude": -38.14847232,
    "Longitude": 145.1660292,
    "Region": "Metro South",
    "Gaming": "N"
  },
  {
    "Maximum Capacity": "More than 499",
    "Suburb": "PARKVILLE",
    "Postcode": 3052,
    "Latitude": -37.7929633,
    "Longitude": 144.9613208,
    "Region": "Metro North",
    "Gaming": "N"
  },
  {
    "Maximum Capacity": "Between 50 and 100",
    "Suburb": "CLAYTON",
    "Postcode": 3168,
    "Latitude": -37.92779477,
    "Longitude": 145.1194313,
    "Region": "Metro East",
    "Gaming": "N"
  },
  {
    "Maximum Capacity": "Between 20 and 49",
    "Suburb": "FRANKSTON",
    "Postcode": 3199,
    "Latitude": -38.14384199,
    "Longitude": 145.1204361,
    "Region": "Metro South",
    "Gaming": "N"
  },
  {
    "Maximum Capacity": "Between 50 and 100",
    "Suburb": "CLAYTON",
    "Postcode": 3168,
    "Latitude": -37.92137878,
    "Longitude": 145.1373685,
    "Region": "Metro East",
    "Gaming": "N"
  },
  {
    "Maximum Capacity": "Between 50 and 100",
    "Suburb": "CAULFIELD",
    "Postcode": 3162,
    "Latitude": -37.88635353,
    "Longitude": 145.0218837,
    "Region": "Metro South",
    "Gaming": "N"
  },
  {
    "Maximum Capacity": "Between 100 and 199",
    "Suburb": "CLAYTON",
    "Postcode": 3181,
    "Latitude": -37.91524603,
    "Longitude": 145.1346439,
    "Region": "Metro East",
    "Gaming": "N"
  },
  {
    "Maximum Capacity": "Between 20 and 49",
    "Suburb": "CLAYTON",
    "Postcode": 3168,
    "Latitude": -37.92530767,
    "Longitude": 145.1198824,
    "Region": "Metro East",
    "Gaming": "N"
  },
  {
    "Maximum Capacity": "Unspecified",
    "Suburb": "BERWICK",
    "Postcode": 3806,
    "Latitude": -38.06147083,
    "Longitude": 145.3392525,
    "Region": "Metro South",
    "Gaming": "N"
  },
  {
    "Maximum Capacity": "More than 499",
    "Suburb": "CLAYTON",
    "Postcode": 3168,
    "Latitude": -37.91107385,
    "Longitude": 145.1355075,
    "Region": "Metro East",
    "Gaming": "N"
  },
  {
    "Maximum Capacity": "Between 20 and 49",
    "Suburb": "CAULFIELD",
    "Postcode": 3162,
    "Latitude": -37.89397595,
    "Longitude": 145.0209423,
    "Region": "Metro South",
    "Gaming": "N"
  },
  {
    "Maximum Capacity": "Between 100 and 199",
    "Suburb": "FRANKSTON",
    "Postcode": 3199,
    "Latitude": -38.14069662,
    "Longitude": 145.1217771,
    "Region": "Metro South",
    "Gaming": "N"
  },
  {
    "Maximum Capacity": "Between 20 and 49",
    "Suburb": "BERWICK",
    "Postcode": 3806,
    "Latitude": -38.03086485,
    "Longitude": 145.3462447,
    "Region": "Metro South",
    "Gaming": "N"
  },
  {
    "Maximum Capacity": "Between 20 and 49",
    "Suburb": "CLAYTON",
    "Postcode": 3168,
    "Latitude": -37.92747036,
    "Longitude": 145.1194991,
    "Region": "Metro East",
    "Gaming": "N"
  },
  {
    "Maximum Capacity": "Between 50 and 100",
    "Suburb": "FRANKSTON",
    "Postcode": 3199,
    "Latitude": -38.14417993,
    "Longitude": 145.12476,
    "Region": "Metro South",
    "Gaming": "N"
  },
  {
    "Maximum Capacity": "Between 20 and 49",
    "Suburb": "CLAYTON",
    "Postcode": 3168,
    "Latitude": -37.92565895,
    "Longitude": 145.1199739,
    "Region": "Metro East",
    "Gaming": "N"
  },
  {
    "Maximum Capacity": "Between 200 and 499",
    "Suburb": "PARKVILLE",
    "Postcode": 3052,
    "Latitude": -37.79469572,
    "Longitude": 144.9493822,
    "Region": "Metro North",
    "Gaming": "N"
  },
  {
    "Maximum Capacity": "Between 50 and 100",
    "Suburb": "CLAYTON",
    "Postcode": 3168,
    "Latitude": -37.92768705,
    "Longitude": 145.1190331,
    "Region": "Metro East",
    "Gaming": "N"
  },
  {
    "Maximum Capacity": "Between 100 and 199",
    "Suburb": "CLAYTON",
    "Postcode": 3168,
    "Latitude": -37.92739829,
    "Longitude": 145.1194876,
    "Region": "Metro East",
    "Gaming": "N"
  },
  {
    "Maximum Capacity": "Between 50 and 100",
    "Suburb": "FRANKSTON",
    "Postcode": 3199,
    "Latitude": -38.14233932,
    "Longitude": 145.1217044,
    "Region": "Metro South",
    "Gaming": "N"
  },
  {
    "Maximum Capacity": "Between 50 and 100",
    "Suburb": "CLAYTON",
    "Postcode": 3168,
    "Latitude": -37.92428,
    "Longitude": 145.120861,
    "Region": "Metro East",
    "Gaming": "N"
  },
  {
    "Maximum Capacity": "Between 50 and 100",
    "Suburb": "BERWICK",
    "Postcode": 3806,
    "Latitude": -38.06041891,
    "Longitude": 145.3394612,
    "Region": "Metro South",
    "Gaming": "N"
  },
  {
    "Maximum Capacity": "Unspecified",
    "Suburb": "CLAYTON",
    "Postcode": 3168,
    "Latitude": -37.925184,
    "Longitude": 145.119917,
    "Region": "Metro East",
    "Gaming": "N"
  },
  {
    "Maximum Capacity": "Between 50 and 100",
    "Suburb": "FRANKSTON",
    "Postcode": 3199,
    "Latitude": -38.163781,
    "Longitude": 145.137132,
    "Region": "Metro South",
    "Gaming": "N"
  },
  {
    "Maximum Capacity": "Between 100 and 199",
    "Suburb": "FRANKSTON",
    "Postcode": 3199,
    "Latitude": -38.14284049,
    "Longitude": 145.120187,
    "Region": "Metro South",
    "Gaming": "N"
  },
  {
    "Maximum Capacity": "Between 20 and 49",
    "Suburb": "FRANKSTON",
    "Postcode": 3199,
    "Latitude": -38.144386,
    "Longitude": 145.124526,
    "Region": "Metro South",
    "Gaming": "N"
  },
  {
    "Maximum Capacity": "Between 50 and 100",
    "Suburb": "CLAYTON",
    "Postcode": 3168,
    "Latitude": -37.92644167,
    "Longitude": 145.1191723,
    "Region": "Metro East",
    "Gaming": "N"
  },
  {
    "Maximum Capacity": "Unspecified",
    "Suburb": "CLAYTON",
    "Postcode": 3168,
    "Latitude": -37.926498,
    "Longitude": 145.119142,
    "Region": "Metro East",
    "Gaming": "N"
  },
  {
    "Maximum Capacity": "Between 200 and 499",
    "Suburb": "FRANKSTON",
    "Postcode": 3199,
    "Latitude": -38.14520048,
    "Longitude": 145.1224516,
    "Region": "Metro South",
    "Gaming": "N"
  },
  {
    "Maximum Capacity": "Between 20 and 49",
    "Suburb": "CLAYTON",
    "Postcode": 3168,
    "Latitude": -37.927071,
    "Longitude": 145.119596,
    "Region": "Metro East",
    "Gaming": "N"
  },
  {
    "Maximum Capacity": "Between 200 and 499",
    "Suburb": "CLAYTON",
    "Postcode": 3800,
    "Latitude": -37.91524603,
    "Longitude": 145.1346439,
    "Region": "Metro East",
    "Gaming": "N"
  },
  {
    "Maximum Capacity": "Between 50 and 100",
    "Suburb": "BERWICK",
    "Postcode": 3806,
    "Latitude": -38.031523,
    "Longitude": 145.344593,
    "Region": "Metro South",
    "Gaming": "N"
  },
  {
    "Maximum Capacity": "Between 20 and 49",
    "Suburb": "CLAYTON",
    "Postcode": 3168,
    "Latitude": -37.926811,
    "Longitude": 145.119648,
    "Region": "Metro East",
    "Gaming": "N"
  },
  {
    "Maximum Capacity": "Between 50 and 100",
    "Suburb": "BERWICK",
    "Postcode": 3806,
    "Latitude": -38.03030045,
    "Longitude": 145.3458124,
    "Region": "Metro South",
    "Gaming": "N"
  },
  {
    "Maximum Capacity": "Unspecified",
    "Suburb": "FRANKSTON",
    "Postcode": 3199,
    "Latitude": -38.14317067,
    "Longitude": 145.1199845,
    "Region": "Metro South",
    "Gaming": "N"
  },
  {
    "Maximum Capacity": "Between 50 and 100",
    "Suburb": "CLAYTON",
    "Postcode": 3168,
    "Latitude": -37.926407,
    "Longitude": 145.119738,
    "Region": "Metro East",
    "Gaming": "N"
  },
  {
    "Maximum Capacity": "Between 200 and 499",
    "Suburb": "FRANKSTON",
    "Postcode": 3199,
    "Latitude": -38.143594,
    "Longitude": 145.122674,
    "Region": "Metro South",
    "Gaming": "N"
  },
  {
    "Maximum Capacity": "Between 20 and 49",
    "Suburb": "BERWICK",
    "Postcode": 3806,
    "Latitude": -38.03132905,
    "Longitude": 145.3440249,
    "Region": "Metro South",
    "Gaming": "N"
  },
  {
    "Maximum Capacity": "Between 100 and 199",
    "Suburb": "BERWICK",
    "Postcode": 3806,
    "Latitude": -38.06041891,
    "Longitude": 145.3394612,
    "Region": "Metro South",
    "Gaming": "N"
  },
  {
    "Maximum Capacity": "Between 100 and 199",
    "Suburb": "FRANKSTON",
    "Postcode": 3199,
    "Latitude": -38.14383285,
    "Longitude": 145.1232431,
    "Region": "Metro South",
    "Gaming": "N"
  },
  {
    "Maximum Capacity": "Between 20 and 49",
    "Suburb": "BERWICK",
    "Postcode": 3806,
    "Latitude": -38.03150498,
    "Longitude": 145.3452645,
    "Region": "Metro South",
    "Gaming": "N"
  },
  {
    "Maximum Capacity": "Between 200 and 499",
    "Suburb": "BERWICK",
    "Postcode": 3806,
    "Latitude": -38.031116,
    "Longitude": 145.347757,
    "Region": "Metro South",
    "Gaming": "N"
  },
  {
    "Maximum Capacity": "Between 100 and 199",
    "Suburb": "FRANKSTON",
    "Postcode": 3199,
    "Latitude": -38.15118565,
    "Longitude": 145.1653929,
    "Region": "Metro South",
    "Gaming": "N"
  },
  {
    "Maximum Capacity": "Between 100 and 199",
    "Suburb": "CLAYTON",
    "Postcode": 3168,
    "Latitude": -37.92125142,
    "Longitude": 145.1373856,
    "Region": "Metro East",
    "Gaming": "N"
  },
  {
    "Maximum Capacity": "Between 50 and 100",
    "Suburb": "FRANKSTON",
    "Postcode": 3199,
    "Latitude": -38.135543,
    "Longitude": 145.123817,
    "Region": "Metro South",
    "Gaming": "N"
  },
  {
    "Maximum Capacity": "Between 100 and 199",
    "Suburb": "CLAYTON",
    "Postcode": 3800,
    "Latitude": -37.91515521,
    "Longitude": 145.1339008,
    "Region": "Metro East",
    "Gaming": "N"
  },
  {
    "Maximum Capacity": "Between 20 and 49",
    "Suburb": "FRANKSTON",
    "Postcode": 3199,
    "Latitude": -38.144792,
    "Longitude": 145.138699,
    "Region": "Metro South",
    "Gaming": "N"
  },
  {
    "Maximum Capacity": "Between 50 and 100",
    "Suburb": "CLAYTON",
    "Postcode": 3168,
    "Latitude": -37.926865,
    "Longitude": 145.119635,
    "Region": "Metro East",
    "Gaming": "N"
  },
  {
    "Maximum Capacity": "Between 200 and 499",
    "Suburb": "CAULFIELD",
    "Postcode": 3145,
    "Latitude": -37.87648733,
    "Longitude": 145.0454251,
    "Region": "Metro South",
    "Gaming": "N"
  },
  {
    "Maximum Capacity": "Between 20 and 49",
    "Suburb": "BERWICK",
    "Postcode": 3806,
    "Latitude": -38.032018,
    "Longitude": 145.345925,
    "Region": "Metro South",
    "Gaming": "N"
  },
  {
    "Maximum Capacity": "Between 50 and 100",
    "Suburb": "CLAYTON",
    "Postcode": 3168,
    "Latitude": -37.927125,
    "Longitude": 145.119583,
    "Region": "Metro East",
    "Gaming": "N"
  },
  {
    "Maximum Capacity": "Between 100 and 199",
    "Suburb": "BERWICK",
    "Postcode": 3806,
    "Latitude": -38.030275,
    "Longitude": 145.345645,
    "Region": "Metro South",
    "Gaming": "N"
  },
  {
    "Maximum Capacity": "Between 5 and 19",
    "Suburb": "BERWICK",
    "Postcode": 3806,
    "Latitude": -38.01491622,
    "Longitude": 145.3234036,
    "Region": "Metro South",
    "Gaming": "N"
  },
  {
    "Maximum Capacity": "Between 50 and 100",
    "Suburb": "FRANKSTON",
    "Postcode": 3199,
    "Latitude": -38.144387,
    "Longitude": 145.138207,
    "Region": "Metro South",
    "Gaming": "N"
  },
  {
    "Maximum Capacity": "Between 50 and 100",
    "Suburb": "BERWICK",
    "Postcode": 3806,
    "Latitude": -38.0574457,
    "Longitude": 145.3384434,
    "Region": "Metro South",
    "Gaming": "N"
  },
  {
    "Maximum Capacity": "Between 200 and 499",
    "Suburb": "BERWICK",
    "Postcode": 3806,
    "Latitude": -38.0574457,
    "Longitude": 145.3384434,
    "Region": "Metro South",
    "Gaming": "N"
  },
  {
    "Maximum Capacity": "Between 50 and 100",
    "Suburb": "CLAYTON",
    "Postcode": 3168,
    "Latitude": -37.927368,
    "Longitude": 145.119008,
    "Region": "Metro East",
    "Gaming": "N"
  },
  {
    "Maximum Capacity": "Unspecified",
    "Suburb": "PARKVILLE",
    "Postcode": 3052,
    "Latitude": -37.79242381,
    "Longitude": 144.9631919,
    "Region": "Metro North",
    "Gaming": "N"
  },
  {
    "Maximum Capacity": "Between 100 and 199",
    "Suburb": "FRANKSTON",
    "Postcode": 3199,
    "Latitude": -38.14516239,
    "Longitude": 145.1394296,
    "Region": "Metro South",
    "Gaming": "N"
  },
  {
    "Maximum Capacity": "Between 200 and 499",
    "Suburb": "FRANKSTON",
    "Postcode": 3199,
    "Latitude": -38.141138,
    "Longitude": 145.124648,
    "Region": "Metro South",
    "Gaming": "N"
  },
  {
    "Maximum Capacity": "Between 5 and 19",
    "Suburb": "CLAYTON",
    "Postcode": 3168,
    "Latitude": -37.9193136,
    "Longitude": 145.1361827,
    "Region": "Metro East",
    "Gaming": "N"
  },
  {
    "Maximum Capacity": "Between 50 and 100",
    "Suburb": "CLAYTON",
    "Postcode": 3168,
    "Latitude": -37.913896,
    "Longitude": 145.132636,
    "Region": "Metro East",
    "Gaming": "N"
  },
  {
    "Maximum Capacity": "Between 50 and 100",
    "Suburb": "BERWICK",
    "Postcode": 3806,
    "Latitude": -38.03154219,
    "Longitude": 145.3457586,
    "Region": "Metro South",
    "Gaming": "N"
  },
  {
    "Maximum Capacity": "Between 50 and 100",
    "Suburb": "PARKVILLE",
    "Postcode": 3052,
    "Latitude": -37.78290465,
    "Longitude": 144.9591559,
    "Region": "Metro North",
    "Gaming": "N"
  },
  {
    "Maximum Capacity": "Between 200 and 499",
    "Suburb": "FRANKSTON",
    "Postcode": 3199,
    "Latitude": -38.137986,
    "Longitude": 145.123868,
    "Region": "Metro South",
    "Gaming": "N"
  },
  {
    "Maximum Capacity": "Unspecified",
    "Suburb": "CLAYTON",
    "Postcode": 3168,
    "Latitude": -37.92575415,
    "Longitude": 145.1387362,
    "Region": "Metro East",
    "Gaming": "N"
  },
  {
    "Maximum Capacity": "Unspecified",
    "Suburb": "FRANKSTON",
    "Postcode": 3199,
    "Latitude": -38.146996,
    "Longitude": 145.131671,
    "Region": "Metro South",
    "Gaming": "N"
  },
  {
    "Maximum Capacity": "Unspecified",
    "Suburb": "CAULFIELD",
    "Postcode": 3162,
    "Latitude": -37.901672,
    "Longitude": 145.030679,
    "Region": "Metro South",
    "Gaming": "N"
  },
  {
    "Maximum Capacity": "Unspecified",
    "Suburb": "CLAYTON",
    "Postcode": 3168,
    "Latitude": -37.922664,
    "Longitude": 145.142279,
    "Region": "Metro East",
    "Gaming": "N"
  },
  {
    "Maximum Capacity": "Between 50 and 100",
    "Suburb": "FRANKSTON",
    "Postcode": 3199,
    "Latitude": -38.140738,
    "Longitude": 145.123691,
    "Region": "Metro South",
    "Gaming": "N"
  },
  {
    "Maximum Capacity": "Between 50 and 100",
    "Suburb": "CLAYTON",
    "Postcode": 3168,
    "Latitude": -37.927349,
    "Longitude": 145.11952,
    "Region": "Metro East",
    "Gaming": "N"
  },
  {
    "Maximum Capacity": "Between 20 and 49",
    "Suburb": "FRANKSTON",
    "Postcode": 3199,
    "Latitude": -38.144047,
    "Longitude": 145.12191,
    "Region": "Metro South",
    "Gaming": "N"
  },
  {
    "Maximum Capacity": "Between 50 and 100",
    "Suburb": "BERWICK",
    "Postcode": 3806,
    "Latitude": -38.01491622,
    "Longitude": 145.3234036,
    "Region": "Metro South",
    "Gaming": "N"
  },
  {
    "Maximum Capacity": "More than 499",
    "Suburb": "FRANKSTON",
    "Postcode": 3199,
    "Latitude": -38.14383285,
    "Longitude": 145.1232431,
    "Region": "Metro South",
    "Gaming": "N"
  },
  {
    "Maximum Capacity": "Unspecified",
    "Suburb": "FRANKSTON",
    "Postcode": 3199,
    "Latitude": -38.132435,
    "Longitude": 145.128187,
    "Region": "Metro South",
    "Gaming": "N"
  },
  {
    "Maximum Capacity": "Unspecified",
    "Suburb": "CAULFIELD",
    "Postcode": 3162,
    "Latitude": -37.877525,
    "Longitude": 145.039481,
    "Region": "Metro South",
    "Gaming": "N"
  },
  {
    "Maximum Capacity": "Unspecified",
    "Suburb": "PARKVILLE",
    "Postcode": 3052,
    "Latitude": -37.78535728,
    "Longitude": 144.9571581,
    "Region": "Metro North",
    "Gaming": "N"
  },
  {
    "Maximum Capacity": "Unspecified",
    "Suburb": "CLAYTON",
    "Postcode": 3168,
    "Latitude": -37.916239,
    "Longitude": 145.132421,
    "Region": "Metro East",
    "Gaming": "N"
  },
  {
    "Maximum Capacity": "Unspecified",
    "Suburb": "FRANKSTON",
    "Postcode": 3199,
    "Latitude": -38.151603,
    "Longitude": 145.152278,
    "Region": "Metro South",
    "Gaming": "N"
  },
  {
    "Maximum Capacity": "Unspecified",
    "Suburb": "BERWICK",
    "Postcode": 3806,
    "Latitude": -38.027356,
    "Longitude": 145.356158,
    "Region": "Metro South",
    "Gaming": "N"
  },
  {
    "Maximum Capacity": "Unspecified",
    "Suburb": "FRANKSTON",
    "Postcode": 3199,
    "Latitude": -38.165117,
    "Longitude": 145.103578,
    "Region": "Metro South",
    "Gaming": "N"
  },
  {
    "Maximum Capacity": "Unspecified",
    "Suburb": "FRANKSTON",
    "Postcode": 3199,
    "Latitude": -38.142414,
    "Longitude": 145.118584,
    "Region": "Metro South",
    "Gaming": "N"
  },
  {
    "Maximum Capacity": "Unspecified",
    "Suburb": "PARKVILLE",
    "Postcode": 3052,
    "Latitude": -37.778114,
    "Longitude": 144.947999,
    "Region": "Metro North",
    "Gaming": "N"
  },
  {
    "Maximum Capacity": "Unspecified",
    "Suburb": "BERWICK",
    "Postcode": 3806,
    "Latitude": -38.033202,
    "Longitude": 145.346787,
    "Region": "Metro South",
    "Gaming": "N"
  },
  {
    "Maximum Capacity": "Unspecified",
    "Suburb": "CLAYTON",
    "Postcode": 3168,
    "Latitude": -37.92243339,
    "Longitude": 145.1168766,
    "Region": "Metro East",
    "Gaming": "N"
  },
  {
    "Maximum Capacity": "Unspecified",
    "Suburb": "BERWICK",
    "Postcode": 3806,
    "Latitude": -38.027714,
    "Longitude": 145.362521,
    "Region": "Metro South",
    "Gaming": "N"
  },
  {
    "Maximum Capacity": "Unspecified",
    "Suburb": "CLAYTON",
    "Postcode": 3168,
    "Latitude": -37.90526859,
    "Longitude": 145.1259119,
    "Region": "Metro East",
    "Gaming": "N"
  },
  {
    "Maximum Capacity": "Unspecified",
    "Suburb": "CAULFIELD",
    "Postcode": 3162,
    "Latitude": -37.887633,
    "Longitude": 145.021638,
    "Region": "Metro South",
    "Gaming": "N"
  },
  {
    "Maximum Capacity": "Unspecified",
    "Suburb": "CLAYTON",
    "Postcode": 3168,
    "Latitude": -37.92496122,
    "Longitude": 145.1217342,
    "Region": "Metro East",
    "Gaming": "N"
  },
  {
    "Maximum Capacity": "Unspecified",
    "Suburb": "FRANKSTON",
    "Postcode": 3199,
    "Latitude": -38.1589315,
    "Longitude": 145.1233872,
    "Region": "Metro South",
    "Gaming": "N"
  },
  {
    "Maximum Capacity": "Unspecified",
    "Suburb": "PARKVILLE",
    "Postcode": 3052,
    "Latitude": -37.78487415,
    "Longitude": 144.9589201,
    "Region": "Metro North",
    "Gaming": "N"
  },
  {
    "Maximum Capacity": "Unspecified",
    "Suburb": "CLAYTON",
    "Postcode": 3168,
    "Latitude": -37.927629,
    "Longitude": 145.118967,
    "Region": "Metro East",
    "Gaming": "N"
  },
  {
    "Maximum Capacity": "Unspecified",
    "Suburb": "CLAYTON",
    "Postcode": 3168,
    "Latitude": -37.923474,
    "Longitude": 145.119685,
    "Region": "Metro East",
    "Gaming": "N"
  },
  {
    "Maximum Capacity": "Unspecified",
    "Suburb": "CAULFIELD",
    "Postcode": 3162,
    "Latitude": -37.879208,
    "Longitude": 145.023262,
    "Region": "Metro South",
    "Gaming": "N"
  },
  {
    "Maximum Capacity": "Unspecified",
    "Suburb": "PARKVILLE",
    "Postcode": 3052,
    "Latitude": -37.77940595,
    "Longitude": 144.9555463,
    "Region": "Metro North",
    "Gaming": "N"
  },
  {
    "Maximum Capacity": "Unspecified",
    "Suburb": "PARKVILLE",
    "Postcode": 3052,
    "Latitude": -37.7879989,
    "Longitude": 144.9536936,
    "Region": "Metro North",
    "Gaming": "N"
  },
  {
    "Maximum Capacity": "Unspecified",
    "Suburb": "BERWICK",
    "Postcode": 3806,
    "Latitude": -38.03960665,
    "Longitude": 145.3291637,
    "Region": "Metro South",
    "Gaming": "N"
  },
  {
    "Maximum Capacity": "Unspecified",
    "Suburb": "PARKVILLE",
    "Postcode": 3052,
    "Latitude": -37.7849524,
    "Longitude": 144.9446668,
    "Region": "Metro North",
    "Gaming": "N"
  },
  {
    "Maximum Capacity": "Unspecified",
    "Suburb": "CLAYTON",
    "Postcode": 3168,
    "Latitude": -37.92180571,
    "Longitude": 145.1240275,
    "Region": "Metro East",
    "Gaming": "N"
  },
  {
    "Maximum Capacity": "Unspecified",
    "Suburb": "CLAYTON",
    "Postcode": 3168,
    "Latitude": -37.9140006,
    "Longitude": 145.1348669,
    "Region": "Metro East",
    "Gaming": "N"
  },
  {
    "Maximum Capacity": "Unspecified",
    "Suburb": "PARKVILLE",
    "Postcode": 3052,
    "Latitude": -37.786509,
    "Longitude": 144.95509,
    "Region": "Metro North",
    "Gaming": "N"
  },
  {
    "Maximum Capacity": "Unspecified",
    "Suburb": "PARKVILLE",
    "Postcode": 3052,
    "Latitude": -37.786509,
    "Longitude": 144.95509,
    "Region": "Metro North",
    "Gaming": "N"
  },
  {
    "Maximum Capacity": "Unspecified",
    "Suburb": "FRANKSTON",
    "Postcode": 3199,
    "Latitude": -38.151058,
    "Longitude": 145.162811,
    "Region": "Metro South",
    "Gaming": "N"
  },
  {
    "Maximum Capacity": "Unspecified",
    "Suburb": "BERWICK",
    "Postcode": 3806,
    "Latitude": -38.030498,
    "Longitude": 145.362757,
    "Region": "Metro South",
    "Gaming": "N"
  },
  {
    "Maximum Capacity": "Unspecified",
    "Suburb": "BERWICK",
    "Postcode": 3806,
    "Latitude": -38.055887,
    "Longitude": 145.3471,
    "Region": "Metro South",
    "Gaming": "N"
  },
  {
    "Maximum Capacity": "Unspecified",
    "Suburb": "FRANKSTON",
    "Postcode": 3199,
    "Latitude": -38.151167,
    "Longitude": 145.124573,
    "Region": "Metro South",
    "Gaming": "N"
  },
  {
    "Maximum Capacity": "Unspecified",
    "Suburb": "CLAYTON",
    "Postcode": 3168,
    "Latitude": -37.91832063,
    "Longitude": 145.1241022,
    "Region": "Metro East",
    "Gaming": "N"
  },
  {
    "Maximum Capacity": "Unspecified",
    "Suburb": "CAULFIELD",
    "Postcode": 3161,
    "Latitude": -37.8723861,
    "Longitude": 145.0247437,
    "Region": "Metro South",
    "Gaming": "N"
  },
  {
    "Maximum Capacity": "Unspecified",
    "Suburb": "PARKVILLE",
    "Postcode": 3052,
    "Latitude": -37.7787711,
    "Longitude": 144.9569392,
    "Region": "Metro North",
    "Gaming": "N"
  },
  {
    "Maximum Capacity": "Unspecified",
    "Suburb": "FRANKSTON",
    "Postcode": 3199,
    "Latitude": -38.1472174,
    "Longitude": 145.1166657,
    "Region": "Metro South",
    "Gaming": "N"
  },
  {
    "Maximum Capacity": "Unspecified",
    "Suburb": "FRANKSTON",
    "Postcode": 3199,
    "Latitude": -38.137368,
    "Longitude": 145.12083,
    "Region": "Metro South",
    "Gaming": "N"
  },
  {
    "Maximum Capacity": "Unspecified",
    "Suburb": "CLAYTON",
    "Postcode": 3800,
    "Latitude": -37.911867,
    "Longitude": 145.136403,
    "Region": "Metro East",
    "Gaming": "N"
  },
  {
    "Maximum Capacity": "Unspecified",
    "Suburb": "CLAYTON",
    "Postcode": 3168,
    "Latitude": -37.902398,
    "Longitude": 145.124204,
    "Region": "Metro East",
    "Gaming": "N"
  },
  {
    "Maximum Capacity": "Unspecified",
    "Suburb": "FRANKSTON",
    "Postcode": 3199,
    "Latitude": -38.151862,
    "Longitude": 145.146483,
    "Region": "Metro South",
    "Gaming": "N"
  },
  {
    "Maximum Capacity": "Unspecified",
    "Suburb": "CAULFIELD",
    "Postcode": 3162,
    "Latitude": -37.886941,
    "Longitude": 145.023351,
    "Region": "Metro South",
    "Gaming": "N"
  },
  {
    "Maximum Capacity": "Unspecified",
    "Suburb": "PARKVILLE",
    "Postcode": 3052,
    "Latitude": -37.781907,
    "Longitude": 144.956316,
    "Region": "Metro North",
    "Gaming": "N"
  },
  {
    "Maximum Capacity": "Unspecified",
    "Suburb": "CAULFIELD",
    "Postcode": 3161,
    "Latitude": -37.869485,
    "Longitude": 145.017963,
    "Region": "Metro South",
    "Gaming": "N"
  },
  {
    "Maximum Capacity": "Unspecified",
    "Suburb": "PARKVILLE",
    "Postcode": 3010,
    "Latitude": -37.794127,
    "Longitude": 144.959949,
    "Region": "Metro North",
    "Gaming": "N"
  },
  {
    "Maximum Capacity": "Unspecified",
    "Suburb": "CLAYTON",
    "Postcode": 3168,
    "Latitude": -37.93128539,
    "Longitude": 145.109364,
    "Region": "Metro South",
    "Gaming": "N"
  },
  {
    "Maximum Capacity": "Unspecified",
    "Suburb": "PARKVILLE",
    "Postcode": 3052,
    "Latitude": -37.781907,
    "Longitude": 144.956316,
    "Region": "Metro North",
    "Gaming": "N"
  },
  {
    "Maximum Capacity": "Unspecified",
    "Suburb": "CLAYTON",
    "Postcode": 3168,
    "Latitude": -37.927737,
    "Longitude": 145.118941,
    "Region": "Metro East",
    "Gaming": "N"
  },
  {
    "Maximum Capacity": "Unspecified",
    "Suburb": "PARKVILLE",
    "Postcode": 3052,
    "Latitude": -37.78368853,
    "Longitude": 144.9576317,
    "Region": "Metro North",
    "Gaming": "N"
  },
  {
    "Maximum Capacity": "Unspecified",
    "Suburb": "PARKVILLE",
    "Postcode": 3052,
    "Latitude": -37.79592182,
    "Longitude": 144.95113,
    "Region": "Metro North",
    "Gaming": "N"
  },
  {
    "Maximum Capacity": "Unspecified",
    "Suburb": "FRANKSTON",
    "Postcode": 3199,
    "Latitude": -38.14026625,
    "Longitude": 145.144407,
    "Region": "Metro South",
    "Gaming": "N"
  },
  {
    "Maximum Capacity": "Unspecified",
    "Suburb": "PARKVILLE",
    "Postcode": 3052,
    "Latitude": -37.79924808,
    "Longitude": 144.955034,
    "Region": "Metro North",
    "Gaming": "N"
  },
  {
    "Maximum Capacity": "Unspecified",
    "Suburb": "FRANKSTON",
    "Postcode": 3199,
    "Latitude": -38.17571438,
    "Longitude": 145.159265,
    "Region": "Metro South",
    "Gaming": "N"
  },
  {
    "Maximum Capacity": "Unspecified",
    "Suburb": "PARKVILLE",
    "Postcode": 3052,
    "Latitude": -37.77765059,
    "Longitude": 144.9545474,
    "Region": "Metro North",
    "Gaming": "N"
  },
  {
    "Maximum Capacity": "Unspecified",
    "Suburb": "CAULFIELD",
    "Postcode": 3161,
    "Latitude": -37.87721904,
    "Longitude": 145.0116282,
    "Region": "Metro South",
    "Gaming": "N"
  },
  {
    "Maximum Capacity": "Unspecified",
    "Suburb": "BERWICK",
    "Postcode": 3806,
    "Latitude": -38.01976524,
    "Longitude": 145.3236675,
    "Region": "Metro South",
    "Gaming": "N"
  },
  {
    "Maximum Capacity": "Unspecified",
    "Suburb": "CLAYTON",
    "Postcode": 3168,
    "Latitude": -37.92876471,
    "Longitude": 145.1361324,
    "Region": "Metro East",
    "Gaming": "N"
  },
  {
    "Maximum Capacity": "Unspecified",
    "Suburb": "FRANKSTON",
    "Postcode": 3199,
    "Latitude": -38.1710122,
    "Longitude": 145.1574818,
    "Region": "Metro South",
    "Gaming": "N"
  },
  {
    "Maximum Capacity": "Unspecified",
    "Suburb": "CLAYTON",
    "Postcode": 3168,
    "Latitude": -37.9279949,
    "Longitude": 145.1194173,
    "Region": "Metro East",
    "Gaming": "N"
  },
  {
    "Maximum Capacity": "Unspecified",
    "Suburb": "BERWICK",
    "Postcode": 3806,
    "Latitude": -38.06041891,
    "Longitude": 145.3394612,
    "Region": "Metro South",
    "Gaming": "N"
  },
  {
    "Maximum Capacity": "Unspecified",
    "Suburb": "BERWICK",
    "Postcode": 3806,
    "Latitude": -38.056926,
    "Longitude": 145.36339,
    "Region": "Metro South",
    "Gaming": "N"
  },
  {
    "Maximum Capacity": "Unspecified",
    "Suburb": "FRANKSTON",
    "Postcode": 3199,
    "Latitude": -38.134259,
    "Longitude": 145.124671,
    "Region": "Metro South",
    "Gaming": "N"
  },
  {
    "Maximum Capacity": "Unspecified",
    "Suburb": "FRANKSTON",
    "Postcode": 3199,
    "Latitude": -38.14038301,
    "Longitude": 145.1219591,
    "Region": "Metro South",
    "Gaming": "N"
  },
  {
    "Maximum Capacity": "Unspecified",
    "Suburb": "FRANKSTON",
    "Postcode": 3199,
    "Latitude": -38.14460421,
    "Longitude": 145.1201049,
    "Region": "Metro South",
    "Gaming": "N"
  },
  {
    "Maximum Capacity": "Unspecified",
    "Suburb": "BERWICK",
    "Postcode": 3806,
    "Latitude": -38.027356,
    "Longitude": 145.356158,
    "Region": "Metro South",
    "Gaming": "N"
  },
  {
    "Maximum Capacity": "Unspecified",
    "Suburb": "CLAYTON",
    "Postcode": 3800,
    "Latitude": -37.91515521,
    "Longitude": 145.1339008,
    "Region": "Metro East",
    "Gaming": "N"
  },
  {
    "Maximum Capacity": "Unspecified",
    "Suburb": "BERWICK",
    "Postcode": 3806,
    "Latitude": -38.030995,
    "Longitude": 145.346814,
    "Region": "Metro South",
    "Gaming": "N"
  },
  {
    "Maximum Capacity": "Unspecified",
    "Suburb": "BERWICK",
    "Postcode": 3806,
    "Latitude": -38.006356,
    "Longitude": 145.32388,
    "Region": "Metro South",
    "Gaming": "N"
  },
  {
    "Maximum Capacity": "Unspecified",
    "Suburb": "FRANKSTON",
    "Postcode": 3199,
    "Latitude": -38.1513314,
    "Longitude": 145.1653293,
    "Region": "Metro South",
    "Gaming": "N"
  },
  {
    "Maximum Capacity": "Unspecified",
    "Suburb": "FRANKSTON",
    "Postcode": 3199,
    "Latitude": -38.1455318,
    "Longitude": 145.1173929,
    "Region": "Metro South",
    "Gaming": "N"
  },
  {
    "Maximum Capacity": "Unspecified",
    "Suburb": "FRANKSTON",
    "Postcode": 3199,
    "Latitude": -38.144963,
    "Longitude": 145.120597,
    "Region": "Metro South",
    "Gaming": "N"
  },
  {
    "Maximum Capacity": "Unspecified",
    "Suburb": "PARKVILLE",
    "Postcode": 3052,
    "Latitude": -37.78487415,
    "Longitude": 144.9589201,
    "Region": "Metro North",
    "Gaming": "N"
  },
  {
    "Maximum Capacity": "Unspecified",
    "Suburb": "BERWICK",
    "Postcode": 3806,
    "Latitude": -38.03150498,
    "Longitude": 145.3452645,
    "Region": "Metro South",
    "Gaming": "N"
  },
  {
    "Maximum Capacity": "Unspecified",
    "Suburb": "PARKVILLE",
    "Postcode": 3052,
    "Latitude": -37.78414369,
    "Longitude": 144.9589392,
    "Region": "Metro North",
    "Gaming": "N"
  },
  {
    "Maximum Capacity": "Unspecified",
    "Suburb": "CAULFIELD",
    "Postcode": 3162,
    "Latitude": -37.88660406,
    "Longitude": 145.0208777,
    "Region": "Metro South",
    "Gaming": "N"
  },
  {
    "Maximum Capacity": "Unspecified",
    "Suburb": "CAULFIELD",
    "Postcode": 3162,
    "Latitude": -37.88497346,
    "Longitude": 145.0240589,
    "Region": "Metro South",
    "Gaming": "N"
  },
  {
    "Maximum Capacity": "Unspecified",
    "Suburb": "FRANKSTON",
    "Postcode": 3199,
    "Latitude": -38.14317671,
    "Longitude": 145.1332906,
    "Region": "Metro South",
    "Gaming": "N"
  },
  {
    "Maximum Capacity": "Unspecified",
    "Suburb": "FRANKSTON",
    "Postcode": 3199,
    "Latitude": -38.15284059,
    "Longitude": 145.1584451,
    "Region": "Metro South",
    "Gaming": "N"
  }
]